INTELSAT 902 (IS-902)   
1 26900U 01039A   26180.50727811 -.00000278  00000+0  00000+0 0  9994
2 26900   6.1472  71.6334 0004207  26.8752 311.5855  1.00270451 90812
INTELSAT 904 (IS-904)   
1 27380U 02007A   26180.51065814 -.00000220  00000+0  00000+0 0  9999
2 27380   6.9493  69.0380 0006456  13.3517 347.5589  1.00272419 51890
DIRECTV 5 (TEMPO 1)     
1 27426U 02023A   26180.43100237 -.00000050  00000+0  00000+0 0  9999
2 27426   4.9078  75.1624 0003569  28.9037 218.5033  1.00271738 88241
INTELSAT 905 (IS-905)   
1 27438U 02027A   26180.48725402  .00000099  00000+0  00000+0 0  9990
2 27438   6.7830  69.6539 0004145  30.1794 215.9422  1.00273023 51487
GALAXY 3C (G-3C)        
1 27445U 02030A   26180.32336424 -.00000145  00000+0  00000+0 0  9990
2 27445   3.7628  77.8239 0001999  25.9605 195.2016  1.00272254 46615
INTELSAT 906 (IS-906)   
1 27513U 02041A   26180.24455838  .00000019  00000+0  00000+0 0  9999
2 27513   5.8323  72.7735 0004154   9.8928 346.8485  1.00272645 87147
GALAXY 13 (HORIZONS-1)  
1 27954U 03044A   26180.52058543  .00000142  00000+0  00000+0 0  9992
2 27954   1.4504  83.7093 0001684   8.2395 223.0380  1.00270894 46693
INTELSAT 10-02          
1 28358U 04022A   26180.37442921 -.00000001  00000+0  00000+0 0  9993
2 28358   0.0320 280.9210 0000210 155.6001 334.7275  1.00267671 80678
DIRECTV 8               
1 28659U 05019A   26180.33975365  .00000012  00000+0  00000+0 0  9994
2 28659   0.0158 321.5633 0003321 142.6694 176.4511  1.00271551 77191
GALAXY 28 (G-28)        
1 28702U 05022A   26180.44051065 -.00000191  00000+0  00000+0 0  9990
2 28702   3.3292  78.7881 0002708  14.2892 315.9322  1.00276528 52094
GALAXY 16 (G-16)        
1 29236U 06023A   26180.49757140 -.00000116  00000+0  00000+0 0  9994
2 29236   0.0186 189.3329 0002761 262.1207 266.2459  1.00273049 73099
DIRECTV 9S              
1 29494U 06043A   26180.49713808 -.00000104  00000+0  00000+0 0  9992
2 29494   2.4513  80.7656 0005445  20.9179 253.6645  1.00271881 51503
GALAXY 17 (G-17)        
1 31307U 07016B   26180.24489139 -.00000198  00000+0  00000+0 0  9992
2 31307   3.0014  79.7562 0004623  22.6029 178.1131  1.00270657 69922
INTELSAT 11 (IS-11)     
1 32253U 07044B   26179.89028425  .00000069  00000+0  00000+0 0  9996
2 32253   3.5949  78.5353 0003209  85.2697 148.0170  0.99047604 68564
HORIZONS-2              
1 32388U 07063B   26180.50259809 -.00000245  00000+0  00000+0 0  9995
2 32388   2.6325  80.4839 0004152   9.2827 294.9423  1.00270468 67932
DIRECTV 11              
1 32729U 08013A   26180.28364912 -.00000114  00000+0  00000+0 0  9992
2 32729   0.0111 257.1678 0000379 251.0248 132.1009  1.00268101 45717
GALAXY 18 (G-18)        
1 32951U 08024A   26180.49280471  .00000036  00000+0  00000+0 0  9993
2 32951   0.0051 103.8543 0003237   0.2781 227.8497  1.00271516 45972
GALAXY 19 (G-19)        
1 33376U 08045A   26180.49800475 -.00000128  00000+0  00000+0 0  9993
2 33376   0.0559 256.2911 0002925 214.3801 249.1858  1.00272011 65020
FM-5                    
1 35493U 09034A   26180.24489139 -.00000189  00000+0  00000+0 0  9994
2 35493   0.0327 282.2614 0000896  68.4658 288.6021  1.00271059 46768
INTELSAT 14 (IS-14)     
1 36097U 09064A   26180.43695728 -.00000262  00000+0  00000+0 0  9994
2 36097   0.0149  49.1740 0002710  50.7241 289.9302  1.00271559 60723
INTELSAT 15 (IS-15)     
1 36106U 09067A   26180.39145926 -.00000174  00000+0  00000+0 0  9995
2 36106   0.0201  56.8447 0002593  47.3326  39.3673  1.00270987 41357
DIRECTV 12              
1 36131U 09075A   26180.32308647 -.00000092  00000+0  00000+0 0  9995
2 36131   0.0136 163.2546 0000502 329.0967 158.6402  1.00270316 46675
INTELSAT 16 (IS-16)     
1 36397U 10006A   26180.50207809 -.00000233  00000+0  00000+0 0  9990
2 36397   0.0137   8.0100 0002551 107.4225 266.6990  1.00270958 59772
XM-5                    
1 37185U 10053A   26180.33447668 -.00000012  00000+0  00000+0 0  9993
2 37185   0.0689 269.7848 0002617 283.5114  89.3384  1.00269576 57602
INTELSAT 17 (IS-17)     
1 37238U 10065B   26180.53022310  .00000010  00000+0  00000+0 0  9997
2 37238   0.0116 228.7484 0002549 231.7656  73.9683  1.00270265 53375
INTELSAT 28 (IS-28)     
1 37392U 11016A   26180.43938397 -.00000216  00000+0  00000+0 0  9994
2 37392   1.8367  82.4832 0004042  15.1707 306.3084  1.00270907 53401
INTELSAT 18 (IS-18)     
1 37834U 11056A   26180.31155962  .00000064  00000+0  00000+0 0  9995
2 37834   0.0192 338.5230 0002067 118.2962 112.7406  1.00271431 53937
INTELSAT 22 (IS-22)     
1 38098U 12011A   26180.53143646 -.00000048  00000+0  00000+0 0  9993
2 38098   0.0202  29.2624 0001945  89.0930  62.6841  1.00272455  7311
INTELSAT 19 (IS-19)     
1 38356U 12030A   26180.50947317 -.00000045  00000+0  00000+0 0  9992
2 38356   0.0012   9.2124 0003437  99.8161 157.9728  1.00271372 50578
INTELSAT 20 (IS-20)     
1 38740U 12043A   26179.87683578  .00000000  00000+0  00000+0 0  9997
2 38740   0.0434  74.6500 0002472 108.3479 118.1184  1.00268936 50862
INTELSAT 21 (IS-21)     
1 38749U 12045A   26180.29179582 -.00000274  00000+0  00000+0 0  9995
2 38749   0.0311  74.0887 0002117  28.9679 221.3902  1.00276856 50643
